[{"OBJECT_NAME":"COSMOS 2597 (RODNIK-S 22)","OBJECT_ID":"2025-273A","EPOCH":"2026-03-09T21:46:58.251360","MEAN_MOTION":12.42896743,"ECCENTRICITY":0.00124298,"INCLINATION":82.4965,"RA_OF_ASC_NODE":232.2436,"ARG_OF_PERICENTER":77.3959,"MEAN_ANOMALY":282.851,"EPHEMERIS_TYPE":0,"CLASSIFICATION_TYPE":"U","NORAD_CAT_ID":66647,"ELEMENT_SET_NO":999,"REV_AT_EPOCH":1296,"BSTAR":0.0001853085,"MEAN_MOTION_DOT":3.6e-7,"MEAN_MOTION_DDOT":0},{"OBJECT_NAME":"SL-8 DEB","OBJECT_ID":"1991-009AL","EPOCH":"2026-03-09T22:15:08.815104","MEAN_MOTION":12.1928086,"ECCENTRICITY":0.01361149,"INCLINATION":74.1107,"RA_OF_ASC_NODE":44.7862,"ARG_OF_PERICENTER":0.5121,"MEAN_ANOMALY":27.9817,"EPHEMERIS_TYPE":0,"CLASSIFICATION_TYPE":"U","NORAD_CAT_ID":21173,"ELEMENT_SET_NO":999,"REV_AT_EPOCH":55837,"BSTAR":-9.8436882e-5,"MEAN_MOTION_DOT":-2.5e-7,"MEAN_MOTION_DDOT":0}]
